     2.11           N: GPS NAV DATA                         RINEX VERSION / TYPE
teqc  2018Mar15                         20180319 14:17:33UTCPGM / RUN BY / DATE
Linux 2.6.32-573.12.1.x86_64|x86_64|gcc -static|Linux 64|=+ COMMENT
    1.1176D-08  7.4506D-09 -5.9605D-08 -5.9605D-08          ION ALPHA
    9.0112D+04  0.0000D+00 -1.9661D+05 -6.5536D+04          ION BETA
    1.862645149231D-09 8.881784197001D-15   589824      200 DELTA-UTC: A0,A1,T,W
                                                            END OF HEADER
13 18  3 15 12  0  0.0-9.552016854286D-05 1.136868377216D-13 0.000000000000D+00
    3.800000000000D+01 5.281250000000D+01 4.729839873959D-09 9.754852547735D-01
    2.715736627579D-06 3.621861338615D-03 6.934627890587D-06 5.153653327942D+03
    3.888000000000D+05-5.215406417847D-08 8.359733362964D-01-2.235174179077D-08
    9.687347729031D-01 2.505000000000D+02 1.617467193704D+00-8.154268229431D-09
    4.482329564161D-10 1.000000000000D+00 1.992000000000D+03 0.000000000000D+00
    2.000000000000D+00 0.000000000000D+00-1.117587089539D-08 3.800000000000D+01
    3.816180000000D+05 4.000000000000D+00
20 18  3 15 11 59 44.0 5.032401531935D-04 1.023181539495D-12 0.000000000000D+00
    1.000000000000D+01-9.156250000000D+01 5.130928009461D-09 1.058994521613D+00
   -4.757195711136D-06 4.335796344094D-03 1.113489270210D-05 5.154827539444D+03
    3.887840000000D+05-2.793967723846D-08-4.354595466380D-01-9.313225746155D-08
    9.283866057486D-01 1.484375000000D+02 1.900919409495D+00-8.306417424198D-09
   -1.021471119801D-10 1.000000000000D+00 1.992000000000D+03 0.000000000000D+00
    2.000000000000D+00 0.000000000000D+00-8.381903171539D-09 1.000000000000D+01
    3.844920000000D+05 4.000000000000D+00
28 18  3 15 12  0  0.0 6.972476840019D-04 3.410605131648D-12 0.000000000000D+00
    8.200000000000D+01 3.112500000000D+01 3.423714040004D-09-2.991287312358D+00
    1.616775989532D-06 1.960962975863D-02 1.218356192112D-05 5.153678842545D+03
    3.888000000000D+05 2.067536115646D-07 2.897845162380D+00 2.793967723846D-08
    9.867950305568D-01 1.552812500000D+02-1.523640360640D+00-7.092081127932D-09
   -2.135803250493D-10 1.000000000000D+00 1.992000000000D+03 0.000000000000D+00
    2.800000000000D+00 0.000000000000D+00-1.117587089539D-08 8.200000000000D+01
    3.844860000000D+05 4.000000000000D+00
 8 18  3 15 12  0  0.0-9.443704038858D-05-1.364242052659D-12 0.000000000000D+00
    9.300000000000D+01 9.490625000000D+01 4.304822170265D-09 2.739542915519D+00
    4.941597580910D-06 3.415290731937D-03 6.295740604401D-06 5.153781530380D+03
    3.888000000000D+05-5.587935447693D-09-2.436193945919D+00 8.195638656616D-08
    9.688876258986D-01 2.613125000000D+02-5.041553957073D-01-8.092122783681D-09
    4.303750697063D-10 1.000000000000D+00 1.992000000000D+03 0.000000000000D+00
    2.000000000000D+00 0.000000000000D+00 5.587935447693D-09 9.300000000000D+01
    3.844860000000D+05 4.000000000000D+00
11 18  3 15 12  0  0.0-7.373532280326D-04-2.273736754432D-13 0.000000000000D+00
    6.200000000000D+01 1.340625000000D+01 6.273475601154D-09-4.853907342210D-01
    6.444752216339D-07 1.673366373871D-02 1.773238182068D-06 5.153615922928D+03
    3.888000000000D+05-2.030283212662D-07-1.793714666044D+00 1.117587089539D-08
    9.041149793322D-01 3.181250000000D+02 1.744478671762D+00-9.490038155324D-09
    2.439387324559D-10 1.000000000000D+00 1.992000000000D+03 0.000000000000D+00
    2.000000000000D+00 0.000000000000D+00-1.210719347000D-08 6.200000000000D+01
    3.844680000000D+05 4.000000000000D+00
24 18  3 15 12  0  0.0-4.729721695185D-05-4.547473508865D-13 0.000000000000D+00
    1.240000000000D+02-2.609375000000D+01 5.449512708364D-09 4.732952368407D-01
   -1.246109604836D-06 6.881921784952D-03 4.306435585022D-06 5.153646278381D+03
    3.888000000000D+05 2.793967723846D-08 1.725219545428D+00 1.285225152969D-07
    9.419326741796D-01 2.826875000000D+02 5.375347492456D-01-8.667861051205D-09
   -4.264463346301D-10 1.000000000000D+00 1.992000000000D+03 0.000000000000D+00
    2.800000000000D+00 0.000000000000D+00 2.793967723846D-09 1.240000000000D+02
    3.849180000000D+05 4.000000000000D+00
15 18  3 15 12  0  0.0-3.563989885151D-04 3.410605131648D-13 0.000000000000D+00
    3.400000000000D+01 5.259375000000D+01 5.539159299647D-09 1.550860456020D+00
    2.896413207054D-06 1.017428166233D-02 8.683651685715D-06 5.153703996658D+03
    3.888000000000D+05-1.564621925354D-07 6.364623738869D-01 1.564621925354D-07
    9.286658709582D-01 1.983125000000D+02 6.719009367653D-01-8.581071721795D-09
    4.425184326689D-10 1.000000000000D+00 1.992000000000D+03 0.000000000000D+00
    2.000000000000D+00 0.000000000000D+00-1.071020960808D-08 3.400000000000D+01
    3.816180000000D+05 4.000000000000D+00
30 18  3 15 11 59 44.0 9.470665827394D-05-3.637978807092D-12 0.000000000000D+00
    1.100000000000D+01-3.931250000000D+01 5.193430612945D-09-2.853784458778D-01
   -2.255663275719D-06 3.110980265774D-03 5.261972546577D-06 5.153755989075D+03
    3.887840000000D+05 5.960464477539D-08 1.818408376511D+00 2.980232238770D-08
    9.445163323364D-01 2.690625000000D+02-3.132893557523D+00-8.478924609815D-09
   -5.071639825584D-10 1.000000000000D+00 1.992000000000D+03 0.000000000000D+00
    2.000000000000D+00 0.000000000000D+00 3.725290298462D-09 1.100000000000D+01
    3.849480000000D+05 4.000000000000D+00
10 18  3 15 12  0  0.0 1.703426241875D-04 3.751665644813D-12 0.000000000000D+00
    1.900000000000D+01-7.350000000000D+01 4.326965949786D-09-1.848414657890D+00
   -3.911554813385D-06 3.378901397809D-03 1.149252057076D-05 5.153674032211D+03
    3.888000000000D+05 5.215406417847D-08-3.319253436457D-01-2.793967723846D-08
    9.612831304895D-01 1.580000000000D+02-2.790816034930D+00-7.858898783251D-09
    7.500312418118D-12 1.000000000000D+00 1.992000000000D+03 0.000000000000D+00
    2.000000000000D+00 0.000000000000D+00 1.862645149231D-09 1.900000000000D+01
    3.845280000000D+05 4.000000000000D+00
